STARLINK-30888          
1 58370U 23177V   26068.17736935  .00001205  00000+0  54599-4 0  9999
2 58370  43.0030 353.0914 0002735 264.3440  95.7100 15.26740275128169
FLOCK 4G-34             
1 62650U 25009AT  26068.73202491  .00013063  00000+0  49338-3 0  9997
2 62650  97.4004 151.0149 0000674 348.8280  11.2944 15.27131464 63729
